M2 PATHFINDER           
1 45727U 20037E   26195.51071244  .00000703  00000+0  54275-4 0  9990
2 45727  97.8143  27.0515 0012985  64.5872 295.6696 15.04790296329602
NETSAT-4                
1 46504U 20068U   26195.59804002  .00010344  00000+0  22334-3 0  9994
2 46504  97.8600 206.0597 0004667 195.4241 164.6865 15.44743237320000
NETSAT-3                
1 46505U 20068V   26195.49533384  .00011033  00000+0  24748-3 0  9993
2 46505  97.8647 204.1323 0003710 214.3579 145.7428 15.43592804319892
NETSAT-1                
1 46506U 20068W   26195.51538665  .00006770  00000+0  20051-3 0  9999
2 46506  97.8749 198.1561 0002417 267.0985  92.9980 15.35235465319491
NETSAT-2                
1 46507U 20068X   26195.59785209  .00013811  00000+0  27406-3 0  9991
2 46507  97.8610 206.0596 0002068 210.5632 149.5496 15.47145745319978
GREENCUBE (IO-117)      
1 53109U 22080E   26195.26503440 -.00000003  00000+0  00000+0 0  9999
2 53109  70.1411 288.8296 0009054 283.5288  76.4363  6.42583348 93803
SITRO-AIS 5 (KATYS)     
1 57176U 23091L   26195.60819245  .00006549  00000+0  22745-3 0  9995
2 57176  97.5050 259.7776 0010722  14.5643 345.5904 15.30056807168530
SITRO-AIS 6 (CHIRKIN)   
1 57192U 23091AC  26195.58576637  .00005643  00000+0  21916-3 0  9998
2 57192  97.5056 258.7264 0011232  18.7529 341.4121 15.26430688168467
SITRO-AIS 8 (ANOKHIN)   
1 57193U 23091AD  26195.57628538  .00008065  00000+0  25642-3 0  9997
2 57193  97.5046 261.4478 0009574  10.3428 349.8009 15.32847333168640
SITRO-AIS 7 (FARTUSHNIY)
1 57194U 23091AE  26195.59462997  .00005535  00000+0  21714-3 0  9990
2 57194  97.5053 258.5459 0011199  19.9533 340.2140 15.26105129168456
SITRO-AIS 10 (BURDAEV)  
1 57199U 23091AK  26195.62008891  .00011891  00000+0  30380-3 0  9999
2 57199  97.5073 266.8359 0004902 343.8440  16.2648 15.39614294168987
SITRO-AIS 9 (SHCHUKIN)  
1 57201U 23091AM  26195.59041865  .00011121  00000+0  28910-3 0  9999
2 57201  97.5071 266.5135 0005178 344.2218  15.8865 15.39098685168966
SITRO-AIS 12 (SMIRENNIY)
1 57204U 23091AQ  26195.57581995  .00011419  00000+0  29394-3 0  9990
2 57204  97.5084 266.9830 0004739 336.8567  23.2464 15.39394367168981
SITRO-AIS 11 (SHEFFER)  
1 57208U 23091AU  26195.58151668  .00011618  00000+0  29474-3 0  9995
2 57208  97.5082 267.2530 0004626 336.2715  23.8317 15.39837504169000
SITRO-AIS 25            
1 59066U 24039R   26195.64381987  .00001864  00000+0  14717-3 0  9994
2 59066  95.3893 253.9601 0142741 231.4673 127.3688 14.93640582128824
SITRO-AIS 26            
1 59067U 24039S   26195.58197086  .00001869  00000+0  14826-3 0  9999
2 59067  95.3893 253.8096 0143071 232.3083 126.5099 14.93432842128807
SITRO-AIS 27            
1 59068U 24039T   26195.61147684  .00001292  00000+0  10249-3 0  9998
2 59068  95.3898 254.1144 0142127 230.7258 128.1291 14.93856701128837
SITRO-AIS 28            
1 59071U 24039U   26195.58831043  .00001886  00000+0  14816-3 0  9990
2 59071  95.3896 254.1472 0142034 230.6491 128.2080 14.93891337128839
GRBBETA                 
1 60237U 24128C   26195.49587608  .00001784  00000+0  13203-3 0  9996
2 60237  61.9898 120.4410 0037142 140.4689 219.9124 15.06805905110382
OOV-CUBE (TUBSAT-30)    
1 60240U 24128F   26195.40209776  .00001023  00000+0  90398-4 0  9995
2 60240  61.9937 130.6682 0041218 139.8475 220.5674 15.02871955110201
ROBUSTA-3A (MEDITERRAN*)
1 60243U 24128J   26195.31873473  .00004300  00000+0  25809-3 0  9994
2 60243  61.9865 112.2758 0038212 133.7290 226.6981 15.11979666110523
LASARSAT                
1 62391U 24247Q   26195.48064535  .00022152  00000+0  41949-3 0  9999
2 62391  44.9737 108.6488 0007294 161.9979 198.1171 15.48013895 87542
CROCUBE                 
1 62394U 24247T   26195.44298929  .00025737  00000+0  45084-3 0  9990
2 62394  44.9723 105.7215 0007458 167.1731 192.9351 15.50156590 87570
FORESAIL-1 PRIME        
1 66778U 25276DS  26195.46957664  .00002682  00000+0  13166-3 0  9993
2 66778  97.4194 268.2432 0002941  46.3647 313.7831 15.18934841 34549
KNACKSAT-2              
1 67683U 98067XZ  26195.36323014  .00036699  00000+0  41017-3 0  9993
2 67683  51.6267 157.5314 0008024 324.9954  35.0511 15.62347754 24527
