OBJECT_NAME,OBJECT_ID,EPOCH,MEAN_MOTION,ECCENTRICITY,INCLINATION,RA_OF_ASC_NODE,ARG_OF_PERICENTER,MEAN_ANOMALY,EPHEMERIS_TYPE,CLASSIFICATION_TYPE,NORAD_CAT_ID,ELEMENT_SET_NO,REV_AT_EPOCH,BSTAR,MEAN_MOTION_DOT,MEAN_MOTION_DDOT
M2 PATHFINDER,2020-037E,2026-07-14T12:15:25.554816,15.04790296,.0012985,97.8143,27.0515,64.5872,295.6696,0,U,45727,999,32960,.54275393E-4,.703E-5,0
NETSAT-4,2020-068U,2026-07-14T14:21:10.657728,15.44743237,.00046677,97.8600,206.0597,195.4241,164.6865,0,U,46504,999,32000,.22334075E-3,.10344E-3,0
NETSAT-3,2020-068V,2026-07-14T11:53:16.843776,15.43592804,.00037103,97.8647,204.1323,214.3579,145.7428,0,U,46505,999,31989,.24748186E-3,.11033E-3,0
NETSAT-1,2020-068W,2026-07-14T12:22:09.406560,15.35235465,.00024175,97.8749,198.1561,267.0985,92.9980,0,U,46506,999,31949,.20051291E-3,.677E-4,0
NETSAT-2,2020-068X,2026-07-14T14:20:54.420576,15.47145745,.00020683,97.8610,206.0596,210.5632,149.5496,0,U,46507,999,31997,.27405844E-3,.13811E-3,0
GREENCUBE (IO-117),2022-080E,2026-07-14T06:21:38.972160,6.42583348,.00090541,70.1411,288.8296,283.5288,76.4363,0,U,53109,999,9380,0,-.3E-7,0
SITRO-AIS 5 (KATYS),2023-091L,2026-07-14T14:35:47.827680,15.30056807,.00107225,97.5050,259.7776,14.5643,345.5904,0,U,57176,999,16853,.22744961E-3,.6549E-4,0
SITRO-AIS 6 (CHIRKIN),2023-091AC,2026-07-14T14:03:30.214368,15.26430688,.00112324,97.5056,258.7264,18.7529,341.4121,0,U,57192,999,16846,.21916093E-3,.5643E-4,0
SITRO-AIS 8 (ANOKHIN),2023-091AD,2026-07-14T13:49:51.056832,15.32847333,.00095741,97.5046,261.4478,10.3428,349.8009,0,U,57193,999,16864,.25642388E-3,.8065E-4,0
SITRO-AIS 7 (FARTUSHNIY),2023-091AE,2026-07-14T14:16:16.029408,15.26105129,.00111994,97.5053,258.5459,19.9533,340.2140,0,U,57194,999,16845,.21714276E-3,.5535E-4,0
SITRO-AIS 10 (BURDAEV),2023-091AK,2026-07-14T14:52:55.681824,15.39614294,.00049026,97.5073,266.8359,343.8440,16.2648,0,U,57199,999,16898,.30379679E-3,.11891E-3,0
SITRO-AIS 9 (SHCHUKIN),2023-091AM,2026-07-14T14:10:12.171360,15.39098685,.00051782,97.5071,266.5135,344.2218,15.8865,0,U,57201,999,16896,.28910236E-3,.11121E-3,0
SITRO-AIS 12 (SMIRENNIY),2023-091AQ,2026-07-14T13:49:10.843680,15.39394367,.00047398,97.5084,266.9830,336.8567,23.2464,0,U,57204,999,16898,.29393893E-3,.11419E-3,0
SITRO-AIS 11 (SHEFFER),2023-091AU,2026-07-14T13:57:23.041152,15.39837504,.00046267,97.5082,267.2530,336.2715,23.8317,0,U,57208,999,16900,.2947419E-3,.11618E-3,0
SITRO-AIS 25,2024-039R,2026-07-14T15:27:06.036768,14.93640582,.01427417,95.3893,253.9601,231.4673,127.3688,0,U,59066,999,12882,.1471675E-3,.1864E-4,0
SITRO-AIS 26,2024-039S,2026-07-14T13:58:02.282304,14.93432842,.01430718,95.3893,253.8096,232.3083,126.5099,0,U,59067,999,12880,.14826127E-3,.1869E-4,0
SITRO-AIS 27,2024-039T,2026-07-14T14:40:31.598976,14.93856701,.01421274,95.3898,254.1144,230.7258,128.1291,0,U,59068,999,12883,.10248884E-3,.1292E-4,0
SITRO-AIS 28,2024-039U,2026-07-14T14:07:10.021152,14.93891337,.01420342,95.3896,254.1472,230.6491,128.2080,0,U,59071,999,12883,.14815835E-3,.1886E-4,0
GRBBETA,2024-128C,2026-07-14T11:54:03.693312,15.06805905,.00371428,61.9898,120.4410,140.4689,219.9124,0,U,60237,999,11038,.13203105E-3,.1784E-4,0
OOV-CUBE (TUBSAT-30),2024-128F,2026-07-14T09:39:01.246464,15.02871955,.00412187,61.9937,130.6682,139.8475,220.5674,0,U,60240,999,11020,.90398228E-4,.1023E-4,0
ROBUSTA-3A (MEDITERRANEE),2024-128J,2026-07-14T07:38:58.680672,15.11979666,.00382129,61.9865,112.2758,133.7290,226.6981,0,U,60243,999,11052,.25808558E-3,.43E-4,0
LASARSAT,2024-247Q,2026-07-14T11:32:07.758240,15.48013895,.00072949,44.9737,108.6488,161.9979,198.1171,0,U,62391,999,8754,.41949352E-3,.22152E-3,0
CROCUBE,2024-247T,2026-07-14T10:37:54.274656,15.50156590,.00074582,44.9723,105.7215,167.1731,192.9351,0,U,62394,999,8757,.45083664E-3,.25737E-3,0
FORESAIL-1 PRIME,2025-276DS,2026-07-14T11:16:11.421696,15.18934841,.00029413,97.4194,268.2432,46.3647,313.7831,0,U,66778,999,3454,.13165719E-3,.2682E-4,0
KNACKSAT-2,1998-067XZ,2026-07-14T08:43:03.084096,15.62347754,.00080246,51.6267,157.5314,324.9954,35.0511,0,U,67683,999,2452,.41016626E-3,.36699E-3,0
